#dP2019  7 21  0  0  0.00000000      96 __u+U ITR00 FIT  IAC
## 2063      0.00000000   900.00000000 58685 0.0000000000000
+   97   C01C02C03C05C06C07C08C09C10C11C12C13C14C16E01E02E03
+        E04E05E07E08E09E11E12E13E14E15E18E19E21E24E25E26E27
+        E30E31E33E36G01G02G03G04G05G06G07G08G09G10G11G12G13
+        G14G15G16G17G18G19G20G21G22G24G25G26G27G28G29G30G31
+        G32J01J02J03J07R01R02R03R04R05R07R08R09R10R11R12R13
+        R14R15R16R17R18R19R20R21R22R23R24R26  0  0  0  0  0
++        13 12  0 12  9  8  8  8  8  8  8  8  8  8  5  5  5
++         5  5  6  5  5  5  5  5  5  5  5  5  5  5  5  5  5
++         5  5  5  5  4  4  4  4  4  4  4  4  4  3  4  4  4
++         4  3  4  4  4  4  3  3  4  3  4  4  4  4  3  4  3
++         4  9 10  9 15  5  5  5  5  5  5  6  6  5  5  5  6
++         5  5  6  5  5  6  6  5  5  5  6  8  0  0  0  0  0
%c M  cc GPS ccc cccc cccc cccc cccc ccccc ccccc ccccc ccccc
%c cc cc ccc ccc cccc cccc cccc cccc ccccc ccccc ccccc ccccc
%f  0.0000000  0.000000000  0.00000000000  0.000000000000000
%f  0.0000000  0.000000000  0.00000000000  0.000000000000000
%i    0    0    0    0      0      0      0      0         0
%i    0    0    0    0      0      0      0      0         0
/*                                                          
/*   RSA / INFORMATION & ANALYSIS CENTER (IAC) OF MCC       
/*   ULTRA-RAPID DETERMINATION                              
/* PCV:IGS14_2056 OL/AL:FES2004  NONE     YN ORB:CoN CLK:CoN
*  2019 07 21 21  0  0.00000000
PC01 -32317.118630  27084.970241    564.454882    866.263931
PC02   4356.630938  41907.041642  -1400.212045     20.629682
PC03      0.000000      0.000000      0.000000 999999.999999
PC05  21971.131223  35949.723472  -1021.076004   -417.431678
PC06 -17359.608507  38089.246447  -2693.196871    530.783073
PC07  -8202.637964  27358.552866  31296.457388    -17.301343
PC08 -21749.827034  21414.640941 -29150.779224    168.147538
PC09  -8593.445764  39463.269022  11691.885958   -169.396897
PC10   5715.125794  34271.376356  24322.296382     -8.533594
PC11  21044.707268 -17850.612104  -3873.403203    256.362938
PC12  14870.044756   6174.867903 -22723.493391    888.366104
PC13  -7671.458548  24030.159360 -33780.123231   -858.010491
PC14  16092.176068  -1935.280723  22780.364434    525.391351
PC16 -15914.663571  38924.860426  -1272.612117   -887.014269
PE01   3474.433690  20200.820568  21360.740127   -651.964939
PE02  -3531.325432 -20216.332236 -21329.033811     70.351933
PE03   3445.248324 -29390.361519    -71.629875   -190.809811
PE04   9539.100601  22260.495467  17032.424568   -328.121650
PE05  14515.502669 -19349.351781  17066.651701   -464.398547
PE07 -17030.597440  -1932.837557 -24120.049555   -230.927593
PE08  -9669.166174 -22073.900890 -17169.116911   6320.312712
PE09  16914.514655   1772.488983  24238.545655   6371.802403
PE11  26753.411017  -2820.162207 -12377.437727   5647.590203
PE12  12929.388826  11680.015939 -23934.296158   6286.849378
PE13 -26669.725649   2888.005729  12507.695381    390.317763
PE14  17753.275004 -21502.106841  -6003.702335   -651.600904
PE15 -13289.273232 -11335.061945  23897.561013    902.349497
PE18  -6714.899814  26750.774767  -9381.076717   -747.037216
PE19  -4680.957629  29170.645199  -1815.080770     -5.017802
PE21 -15603.909603   8022.285619  23837.532918   -545.351802
PE24  25385.485254   8772.198274 -12441.184117   5965.085918
PE25  15678.450772  -7945.398053 -23811.661883   1735.400580
PE26 -24523.732774  15339.959507  -6295.283298   4314.034443
PE27 -25456.077258  -8854.104328  12235.298860    424.332350
PE30 -20318.144746 -20567.086059  -6356.756572   4692.226463
PE31  20340.203929  20501.033234   6533.774685   -466.666251
PE33  -7904.924075  18950.970731 -21317.688501   -469.819417
PE36  24458.993744 -15459.773828   6247.092719    684.644723
PG01   9325.796231  13639.016121 -21061.431107    -73.802869
PG02  13518.006634 -14734.304626  18021.445977   -265.371561
PG03  12692.121400  23119.061880  -3585.473341    179.753659
PG04 -13089.069450  21519.502011   7183.823243     11.137796
PG05   3578.017320 -18115.886059  18889.210198     -0.099942
PG06  24838.691038  -6545.769570   6860.583087     -0.948015
PG07  22607.378683   7516.919206  12503.935913    -69.077476
PG08  -3139.713134  24015.224490 -10631.088727   -152.080895
PG09  12874.386464   8644.295224  21522.782946    365.749219
PG10 -18219.309878  -3165.909722 -19077.494816    -24.169657
PG11   4760.336935  16176.025407 -21083.582484   -555.417695
PG12  -9272.330693 -24216.988265  -6346.373927    221.676784
PG13  12526.099800 -23208.036170  -2997.487070    -53.520481
PG14 -17948.737723  16171.642317 -10495.565499    -70.423287
PG15     67.631288 -24074.047921 -11045.369982   -299.389685
PG16  -5191.163997  17084.511032  19320.949918    -58.186374
PG17  17905.795580  -9363.088212 -16787.149826     92.758527
PG18   -617.335800  15703.495338 -21907.212253     71.719240
PG19  18684.735410 -14345.275058 -12624.849538   -291.177956
PG20 -21278.480361 -10433.598433 -12260.002999    526.080003
PG21 -24848.314000  -3369.658334   9277.465083   -150.464771
PG22   8365.967919  22942.350716 -10326.101902   -734.104176
PG24  -6517.593971 -14860.343006 -21223.443979    -69.116303
PG25 -17681.787379 -19079.577658   5774.042127     -2.525239
PG26 -12566.587718   8929.631617  21609.204453    256.859288
PG27 -12110.414680  23417.673094   1176.711165   -191.572558
PG28  17206.729848   4817.319098 -19014.990519    766.127045
PG29  -9334.004007 -12431.940128  21495.939687    145.458135
PG30  26580.781016    674.621118   2096.193724     -3.710020
PG31 -24451.937441   7000.540737   8398.964362     22.729723
PG32 -17848.000879   9815.440620 -16915.428471      6.297301
PJ01 -19284.276288  25823.822717 -22590.276351   -269.654941
PJ02 -27751.648057  20637.744395  28886.862645     -1.396294
PJ03 -31886.427811  27034.275835  11122.485555     -0.027052
PJ07 -25372.434622  33677.965199     18.141413     -0.009637
PR01  -6854.749779  16557.306941 -18155.248629     47.030786
PR02   2669.739782  25339.338757    305.684747    379.462055
PR03   9626.126457  16991.097497  16428.965172     -1.317970
PR04  10846.394162  -1794.461802  23037.569896    314.667948
PR05   5932.752278 -18449.271858  16610.738784     32.330860
PR07  -9695.891483 -16663.558386 -16685.107308    -23.781248
PR08 -10915.203326    892.897393 -22981.649060     16.637420
PR09 -10122.382867 -14389.071773 -18422.881155     81.316150
PR10 -21121.260700 -12879.399167  -6046.235901     54.917194
PR11 -22118.443230  -3499.947628  12180.932751    -73.434977
PR12 -10515.381821   6785.083729  22259.457002     45.720455
PR13   8305.979422  13804.254004  19766.881712    -26.179655
PR14  21369.266240  12684.625022   5818.907567     41.178996
PR15  22419.612413   4217.868963 -11394.816075    103.191455
PR16  10200.899442  -7262.177110 -22224.156490      7.247483
PR17  10486.128844   5259.259446 -22643.335444    245.519795
PR18  20611.766845  -7404.461799 -13116.055892      1.056807
PR19  20002.041712 -15462.281609   3368.837054    -43.505753
PR20   6494.338158 -15022.869625  19581.464594   -385.005361
PR21 -11062.160740  -4659.420303  22504.799617    -61.196973
PR22 -21217.610793   9094.126165  10714.794708    -29.484581
PR23 -16944.512895  16899.226167  -8845.672785    242.160612
PR24  -4367.500794  14455.349098 -20585.436937   -182.860851
PR26   8793.235741 -16062.212170  17750.227276    -15.184790
EOF
